OBJECT_NAME,OBJECT_ID,EPOCH,MEAN_MOTION,ECCENTRICITY,INCLINATION,RA_OF_ASC_NODE,ARG_OF_PERICENTER,MEAN_ANOMALY,EPHEMERIS_TYPE,CLASSIFICATION_TYPE,NORAD_CAT_ID,ELEMENT_SET_NO,REV_AT_EPOCH,BSTAR,MEAN_MOTION_DOT,MEAN_MOTION_DDOT
COSMOS 2534 (758),2019-030A,2026-06-27T07:48:11.380608,2.13102451,.0013563,64.3693,192.2752,275.0761,81.5437,0,U,44299,999,5513,0,.1E-5,0
BEIDOU-3 IGSO-2 (C39),2019-035A,2026-06-26T20:34:38.686944,1.00263830,.00395927,55.2494,158.7781,216.4480,327.7946,0,U,44337,999,2576,0,-.73E-6,0
GPS BIII-2  (PRN 18),2019-056A,2026-06-26T13:16:08.318784,2.00570144,.00624447,55.6322,330.7703,197.6800,112.4206,0,U,44506,999,5025,0,-.104E-5,0
BEIDOU-3 M24 (C46),2019-061A,2026-06-26T21:46:59.473920,1.86229246,.00085173,54.3966,182.3996,358.5660,1.4607,0,U,44542,999,4597,0,.93E-6,0
BEIDOU-3 M23 (C45),2019-061B,2026-06-27T07:16:47.088192,1.86227690,.0005853,54.3956,182.3548,338.4891,198.3613,0,U,44543,999,4598,0,.89E-6,0
EUTELSAT 5 WEST B (EGNOS/PRN 121),2019-067A,2026-06-27T09:03:35.809056,1.00271691,.0003431,0.0626,6.9835,88.7415,310.6577,0,U,44624,999,2453,0,-.31E-6,0
BEIDOU-3 M22 (C44),2019-078A,2026-06-26T05:03:18.490752,1.86227239,.0006246,53.9269,299.5096,51.5881,308.4637,0,U,44793,999,4481,0,-.101E-5,0
BEIDOU-3 M21 (C43),2019-078B,2026-06-27T10:11:12.277824,1.86227899,.0004064,53.8986,299.4278,50.1333,309.9013,0,U,44794,999,4484,0,-.92E-6,0
COSMOS 2544 (759),2019-088A,2026-06-25T22:41:15.294624,2.13102928,.00129231,65.5707,73.4383,257.6247,102.2670,0,U,44850,999,5090,0,-.63E-6,0
BEIDOU-3 M19 (C41),2019-090A,2026-06-27T09:37:01.172064,1.86231783,.0017465,56.5676,62.4526,297.4147,244.1150,0,U,44864,999,4442,0,-.76E-6,0
BEIDOU-3 M20 (C42),2019-090B,2026-06-26T03:47:24.031392,1.86231543,.00152731,56.5685,62.5279,312.0808,205.8058,0,U,44865,999,4438,0,-.87E-6,0
BEIDOU-3 G2 (C60),2020-017A,2026-06-27T11:10:37.326720,1.00272065,.000258,2.8849,47.5097,39.6838,76.1304,0,U,45344,999,2336,0,-.132E-5,0
COSMOS 2545 (760),2020-018A,2026-06-26T03:22:01.430976,2.13102524,.000876,64.3492,312.1035,229.5859,130.3273,0,U,45358,999,4885,0,-.86E-6,0
BEIDOU-3 G3 (C61),2020-040A,2026-06-27T14:01:43.455936,1.00274290,.0002633,2.4729,67.4761,329.8779,199.3128,0,U,45807,999,2217,0,-.344E-5,0
GPS BIII-3  (PRN 23),2020-041A,2026-06-26T17:02:29.374080,2.00558725,.00645317,56.6762,28.5735,204.5005,157.1000,0,U,45854,999,4423,0,-.81E-6,0
GALAXY 30 (WAAS/PRN 135),2020-056C,2026-06-27T11:54:47.752992,1.00271006,.0002296,0.0286,23.0886,71.2723,234.9292,0,U,46114,999,2139,0,0,0
COSMOS 2547 (705K),2020-075A,2026-06-27T06:26:33.349920,2.13100208,.0009405,64.6001,192.1390,239.7377,120.2212,0,U,46805,999,4412,0,.101E-5,0
GPS BIII-4  (PRN 14),2020-078A,2026-06-27T06:39:10.461888,2.00565189,.0073846,53.9788,210.3691,207.5609,180.2155,0,U,46826,999,4171,0,.83E-6,0
GPS BIII-5  (PRN 11),2021-054A,2026-06-27T05:34:05.697696,2.00568693,.00257119,55.1694,332.0557,228.3309,313.1188,0,U,48859,999,3695,0,-.104E-5,0
QZS-1R (QZSS/PRN 196),2021-096A,2026-06-26T14:51:13.875840,1.00253032,.0755635,37.4804,79.4425,271.9684,279.4688,0,U,49336,999,1710,0,-.312E-5,0
GSAT0223 (GALILEO 27),2021-116A,2026-06-23T10:34:17.397696,1.70476308,.00016008,57.1590,341.5051,183.5383,174.0725,0,U,49809,999,2828,0,-.98E-6,0
GSAT0224 (GALILEO 28),2021-116B,2026-06-27T08:47:14.876160,1.70476529,.0001419,57.1577,341.3987,161.6476,197.8652,0,U,49810,999,2837,0,-.94E-6,0
COSMOS 2557 (706K),2022-075A,2026-06-26T23:07:17.487840,2.13102240,.00102969,64.2923,314.1402,273.3986,86.4727,0,U,52984,999,3092,0,-.84E-6,0
COSMOS 2559 (707K),2022-130A,2026-06-26T07:31:50.945376,2.13101803,.001274,64.2654,314.2468,178.9915,181.0006,0,U,54031,999,2888,0,-.86E-6,0
COSMOS 2564 (761),2022-161A,2026-06-26T03:46:07.714272,2.13102114,.00122568,64.7425,192.4139,225.0447,134.9097,0,U,54377,999,2782,0,.107E-5,0
GPS BIII-6  (PRN 28),2023-009A,2026-06-27T05:27:21.642048,2.00571006,.0006259,55.1241,148.1243,317.4817,259.0227,0,U,55268,999,2544,0,.31E-6,0
BEIDOU-3 G4 (C62),2023-066A,2026-06-27T13:31:47.129952,1.00270912,.0004851,0.4753,334.1322,175.3330,109.2073,0,U,56564,999,1149,0,-.269E-5,0
NVS-01 (IRNSS-1J),2023-076A,2026-06-27T13:21:38.683008,1.00274532,.0002805,2.1420,243.8720,11.7119,350.0416,0,U,56759,999,1122,0,-.321E-5,0
COSMOS 2569 (703K),2023-114A,2026-06-27T02:35:18.641760,2.13103865,.00103175,65.3076,72.2859,296.6120,63.3250,0,U,57517,999,2247,0,-.53E-6,0
BEIDOU-3 M28 (C50),2023-207A,2026-06-26T23:08:55.616640,1.86229899,.0002967,55.7613,61.9731,353.1453,6.8963,0,U,58654,999,1702,0,-.82E-6,0
BEIDOU-3 M26 (C48),2023-207B,2026-06-26T05:24:05.823360,1.86229867,.0002695,55.7629,61.9846,322.2397,37.7837,0,U,58655,999,1699,0,-.88E-6,0
