COSMOS 2534 [GLONASS-M] 
1 44299U 19030A   26178.32513172  .00000100  00000+0  00000+0 0  9998
2 44299  64.3693 192.2752 0013563 275.0761  81.5437  2.13102451 55136
BEIDOU-3 IGSO-2         
1 44337U 19035A   26177.85739221 -.00000073  00000+0  00000+0 0  9998
2 44337  55.2494 158.7781 0039592 216.4480 327.7946  1.00263830 25763
NAVSTAR 78 (USA 293)    
1 44506U 19056A   26177.55287406 -.00000104  00000+0  00000+0 0  9994
2 44506  55.6322 330.7703 0062444 197.6800 112.4206  2.00570144 50259
BEIDOU-3 M24            
1 44542U 19061A   26177.90763280  .00000093  00000+0  00000+0 0  9994
2 44542  54.3966 182.3996 0008517 358.5660   1.4607  1.86229246 45979
BEIDOU-3 M23            
1 44543U 19061B   26178.30332278  .00000089  00000+0  00000+0 0  9994
2 44543  54.3956 182.3548 0005853 338.4891 198.3613  1.86227690 45980
EUTELSAT 5 WEST B       
1 44624U 19067A   26178.37749779 -.00000031  00000+0  00000+0 0  9993
2 44624   0.0626   6.9835 0003431  88.7415 310.6577  1.00271691 24531
BEIDOU-3 M22            
1 44793U 19078A   26177.21063068 -.00000101  00000+0  00000+0 0  9992
2 44793  53.9269 299.5096 0006246  51.5881 308.4637  1.86227239 44817
BEIDOU-3 M21            
1 44794U 19078B   26178.42444766 -.00000092  00000+0  00000+0 0  9994
2 44794  53.8986 299.4278 0004064  50.1333 309.9013  1.86227899 44846
COSMOS 2544 [GLONASS-M] 
1 44850U 19088A   26176.94531591 -.00000063  00000+0  00000+0 0  9994
2 44850  65.5707  73.4383 0012923 257.6247 102.2670  2.13102928 50901
BEIDOU-3 M19            
1 44864U 19090A   26178.40070801 -.00000076  00000+0  00000+0 0  9991
2 44864  56.5676  62.4526 0017465 297.4147 244.1150  1.86231783 44425
BEIDOU-3 M20            
1 44865U 19090B   26177.15791703 -.00000087  00000+0  00000+0 0  9996
2 44865  56.5685  62.5279 0015273 312.0808 205.8058  1.86231543 44385
BEIDOU-3 G2             
1 45344U 20017A   26178.46570980 -.00000132  00000+0  00000+0 0  9998
2 45344   2.8849  47.5097 0002580  39.6838  76.1304  1.00272065 23365
COSMOS 2545 [GLONASS-M] 
1 45358U 20018A   26177.14029434 -.00000086  00000+0  00000+0 0  9999
2 45358  64.3492 312.1035 0008760 229.5859 130.3273  2.13102524 48855
BEIDOU-3 G3             
1 45807U 20040A   26178.58453074 -.00000344  00000+0  00000+0 0  9990
2 45807   2.4729  67.4761 0002633 329.8779 199.3128  1.00274290 22170
NAVSTAR 79 (USA 304)    
1 45854U 20041A   26177.71006220 -.00000081  00000+0  00000+0 0  9992
2 45854  56.6762  28.5735 0064531 204.5005 157.1000  2.00558725 44236
GALAXY 30 (G-30)        
1 46114U 20056C   26178.49638603  .00000000  00000+0  00000+0 0  9990
2 46114   0.0286  23.0886 0002296  71.2723 234.9292  1.00271006 21395
COSMOS 2547 [GLONASS-K] 
1 46805U 20075A   26178.26844155  .00000101  00000+0  00000+0 0  9996
2 46805  64.6001 192.1390 0009405 239.7377 120.2212  2.13100208 44121
NAVSTAR 80 (USA 309)    
1 46826U 20078A   26178.27720442  .00000083  00000+0  00000+0 0  9994
2 46826  53.9788 210.3691 0073846 207.5609 180.2155  2.00565189 41718
NAVSTAR 81 (USA 319)    
1 48859U 21054A   26178.23201039 -.00000104  00000+0  00000+0 0  9994
2 48859  55.1694 332.0557 0025711 228.3309 313.1188  2.00568693 36951
QZS-1R (MICHIBIKI-1R)   
1 49336U 21096A   26177.61891060 -.00000312  00000+0  00000+0 0  9992
2 49336  37.4804  79.4425 0755635 271.9684 279.4688  1.00253032 17101
GSAT0223 (GALILEO 27)   
1 49809U 21116A   26174.44047914 -.00000098  00000+0  00000+0 0  9990
2 49809  57.1590 341.5051 0001600 183.5383 174.0725  1.70476308 28288
GSAT0224 (GALILEO 28)   
1 49810U 21116B   26178.36614440 -.00000094  00000+0  00000+0 0  9997
2 49810  57.1577 341.3987 0001419 161.6476 197.8652  1.70476529 28376
COSMOS 2557 [GLONASS-K] 
1 52984U 22075A   26177.96339685 -.00000084  00000+0  00000+0 0  9997
2 52984  64.2923 314.1402 0010296 273.3986  86.4727  2.13102240 30920
COSMOS 2559 [GLONASS-K] 
1 54031U 22130A   26177.31378409 -.00000086  00000+0  00000+0 0  9992
2 54031  64.2654 314.2468 0012740 178.9915 181.0006  2.13101803 28885
COSMOS 2564 [GLONASS-M] 
1 54377U 22161A   26177.15703373  .00000107  00000+0  00000+0 0  9996
2 54377  64.7425 192.4139 0012256 225.0447 134.9097  2.13102114 27822
NAVSTAR 82 (USA 343)    
1 55268U 23009A   26178.22733382  .00000031  00000+0  00000+0 0  9996
2 55268  55.1241 148.1243 0006259 317.4817 259.0227  2.00571006 25445
BEIDOU-3 G4             
1 56564U 23066A   26178.56373993 -.00000269  00000+0  00000+0 0  9998
2 56564   0.4753 334.1322 0004851 175.3330 109.2073  1.00270912 11494
NVS-01 (IRNSS-1J)       
1 56759U 23076A   26178.55669772 -.00000321  00000+0  00000+0 0  9996
2 56759   2.1420 243.8720 0002805  11.7119 350.0416  1.00274532 11223
COSMOS 2569 [GLONASS-K2]
1 57517U 23114A   26178.10785465 -.00000053  00000+0  00000+0 0  9993
2 57517  65.3076  72.2859 0010317 296.6120  63.3250  2.13103865 22478
BEIDOU-3 M28            
1 58654U 23207A   26177.96453260 -.00000082  00000+0  00000+0 0  9999
2 58654  55.7613  61.9731 0002967 353.1453   6.8963  1.86229899 17028
BEIDOU-3 M26            
1 58655U 23207B   26177.22506740 -.00000088  00000+0  00000+0 0  9997
2 58655  55.7629  61.9846 0002695 322.2397  37.7837  1.86229867 16998
